[
    {
        "Altitude(m)": 604969.0892227032,
        "Argument of Periapsis(deg)": 0.0,
        "Eccentricity": 0.0,
        "Inclination(deg)": 60.0,
        "Latitude(deg)": -0.092732784207583,
        "Longitude(deg)": -55.02247229646392,
        "Mean Anomaly(deg)": 0.0,
        "RAAN(deg)": 45.0,
        "Satellite Name": "Test1 198",
        "Satellite Number": 198,
        "Semi-Major Axis(m)": 6980739.136638005,
        "Time(s)": 0
    },
    {
        "Altitude(m)": 604900.0282173167,
        "Argument of Periapsis(deg)": 0.00010418945913296404,
        "Eccentricity": 0.0,
        "Inclination(deg)": 60.0,
        "Latitude(deg)": 0.4476934006624682,
        "Longitude(deg)": -54.75434984479309,
        "Mean Anomaly(deg)": 0.6201061454618275,
        "RAAN(deg)": 44.99957995086026,
        "Satellite Name": "Test1 198",
        "Satellite Number": 198,
        "Semi-Major Axis(m)": 6980739.136638005,
        "Time(s)": 10
    },
    {
        "Altitude(m)": 604834.1952839637,
        "Argument of Periapsis(deg)": 0.0002083789182659281,
        "Eccentricity": 0.0,
        "Inclination(deg)": 60.0,
        "Latitude(deg)": 0.9881163613965908,
        "Longitude(deg)": -54.48617598840481,
        "Mean Anomaly(deg)": 1.2402122909236615,
        "RAAN(deg)": 44.99915990172052,
        "Satellite Name": "Test1 198",
        "Satellite Number": 198,
        "Semi-Major Axis(m)": 6980739.136638005,
        "Time(s)": 20
    },
    {
        "Altitude(m)": 604771.5968018821,
        "Argument of Periapsis(deg)": 0.00031256837739889213,
        "Eccentricity": 0.0,
        "Inclination(deg)": 60.0,
        "Latitude(deg)": 1.5285190120225591,
        "Longitude(deg)": -54.21789633798532,
        "Mean Anomaly(deg)": 1.860318436385489,
        "RAAN(deg)": 44.99873985258077,
        "Satellite Name": "Test1 198",
        "Satellite Number": 198,
        "Semi-Major Axis(m)": 6980739.136638005,
        "Time(s)": 30
    },
    {
        "Altitude(m)": 604712.2376204068,
        "Argument of Periapsis(deg)": 0.0004167578365318562,
        "Eccentricity": 0.0,
        "Inclination(deg)": 60.0,
        "Latitude(deg)": 2.0688842451080856,
        "Longitude(deg)": -53.94945593568386,
        "Mean Anomaly(deg)": 2.480424581847323,
        "RAAN(deg)": 44.99831980344103,
        "Satellite Name": "Test1 198",
        "Satellite Number": 198,
        "Semi-Major Axis(m)": 6980739.136638005,
        "Time(s)": 40
    },
    {
        "Altitude(m)": 604656.1210594272,
        "Argument of Periapsis(deg)": 0.0005209472956648203,
        "Eccentricity": 0.0,
        "Inclination(deg)": 60.0,
        "Latitude(deg)": 2.609194921848744,
        "Longitude(deg)": -53.68080023167764,
        "Mean Anomaly(deg)": 3.1005307273091502,
        "RAAN(deg)": 44.99789975430129,
        "Satellite Name": "Test1 198",
        "Satellite Number": 198,
        "Semi-Major Axis(m)": 6980739.136638005,
        "Time(s)": 50
    },
    {
        "Altitude(m)": 604603.2489105684,
        "Argument of Periapsis(deg)": 0.0006251367547977843,
        "Eccentricity": 0.0,
        "Inclination(deg)": 60.0,
        "Latitude(deg)": 3.149433862117552,
        "Longitude(deg)": -53.41187454777474,
        "Mean Anomaly(deg)": 3.7206368727709846,
        "RAAN(deg)": 44.997479705161545,
        "Satellite Name": "Test1 198",
        "Satellite Number": 198,
        "Semi-Major Axis(m)": 6980739.136638005,
        "Time(s)": 60
    },
    {
        "Altitude(m)": 604553.6214391581,
        "Argument of Periapsis(deg)": 0.0007293262139307483,
        "Eccentricity": 0.0,
        "Inclination(deg)": 60.0,
        "Latitude(deg)": 3.6895838344612324,
        "Longitude(deg)": -53.14262354089882,
        "Mean Anomaly(deg)": 4.340743018232812,
        "RAAN(deg)": 44.9970596560218,
        "Satellite Name": "Test1 198",
        "Satellite Number": 198,
        "Semi-Major Axis(m)": 6980739.136638005,
        "Time(s)": 70
    },
    {
        "Altitude(m)": 604507.2373869185,
        "Argument of Periapsis(deg)": 0.0008335156730637124,
        "Eccentricity": 0.0,
        "Inclination(deg)": 60.0,
        "Latitude(deg)": 4.229627546028454,
        "Longitude(deg)": -52.87299217929994,
        "Mean Anomaly(deg)": 4.960849163694646,
        "RAAN(deg)": 44.996639606882056,
        "Satellite Name": "Test1 198",
        "Satellite Number": 198,
        "Semi-Major Axis(m)": 6980739.136638005,
        "Time(s)": 80
    },
    {
        "Altitude(m)": 604464.0939754322,
        "Argument of Periapsis(deg)": 0.0009377051321966765,
        "Eccentricity": 0.0,
        "Inclination(deg)": 60.0,
        "Latitude(deg)": 4.769547632419021,
        "Longitude(deg)": -52.60292520571688,
        "Mean Anomaly(deg)": 5.580955309156474,
        "RAAN(deg)": 44.996219557742315,
        "Satellite Name": "Test1 198",
        "Satellite Number": 198,
        "Semi-Major Axis(m)": 6980739.136638005,
        "Time(s)": 90
    },
    {
        "Altitude(m)": 604424.1869103309,
        "Argument of Periapsis(deg)": 0.0010418945913296407,
        "Eccentricity": 0.0,
        "Inclination(deg)": 60.0,
        "Latitude(deg)": 5.309326647439108,
        "Longitude(deg)": -52.332366600333906,
        "Mean Anomaly(deg)": 6.2010614546183085,
        "RAAN(deg)": 44.99579950860257,
        "Satellite Name": "Test1 198",
        "Satellite Number": 198,
        "Semi-Major Axis(m)": 6980739.136638005,
        "Time(s)": 100
    },
    {
        "Altitude(m)": 604387.5103862445,
        "Argument of Periapsis(deg)": 0.0011460840504626045,
        "Eccentricity": 0.0,
        "Inclination(deg)": 60.0,
        "Latitude(deg)": 5.84894705274702,
        "Longitude(deg)": -52.061260556377306,
        "Mean Anomaly(deg)": 6.821167600080136,
        "RAAN(deg)": 44.99537945946283,
        "Satellite Name": "Test1 198",
        "Satellite Number": 198,
        "Semi-Major Axis(m)": 6980739.136638005,
        "Time(s)": 110
    },
    {
        "Altitude(m)": 604354.0570924884,
        "Argument of Periapsis(deg)": 0.0012502735095955685,
        "Eccentricity": 0.0,
        "Inclination(deg)": 60.0,
        "Latitude(deg)": 6.388391207378392,
        "Longitude(deg)": -51.78955094257529,
        "Mean Anomaly(deg)": 7.441273745541963,
        "RAAN(deg)": 44.99495941032309,
        "Satellite Name": "Test1 198",
        "Satellite Number": 198,
        "Semi-Major Axis(m)": 6980739.136638005,
        "Time(s)": 120
    },
    {
        "Altitude(m)": 604323.8182194998,
        "Argument of Periapsis(deg)": 0.0013544629687285324,
        "Eccentricity": 0.0,
        "Inclination(deg)": 60.0,
        "Latitude(deg)": 6.927641357135142,
        "Longitude(deg)": -51.51718076532568,
        "Mean Anomaly(deg)": 8.06137989100379,
        "RAAN(deg)": 44.99453936118335,
        "Satellite Name": "Test1 198",
        "Satellite Number": 198,
        "Semi-Major Axis(m)": 6980739.136638005,
        "Time(s)": 130
    },
    {
        "Altitude(m)": 604296.7834659802,
        "Argument of Periapsis(deg)": 0.0014586524278614966,
        "Eccentricity": 0.0,
        "Inclination(deg)": 60.0,
        "Latitude(deg)": 7.466679623822221,
        "Longitude(deg)": -51.24409314341494,
        "Mean Anomaly(deg)": 8.681486036465625,
        "RAAN(deg)": 44.99411931204361,
        "Satellite Name": "Test1 198",
        "Satellite Number": 198,
        "Semi-Major Axis(m)": 6980739.136638005,
        "Time(s)": 140
    },
    {
        "Altitude(m)": 604272.9410467976,
        "Argument of Periapsis(deg)": 0.0015628418869944607,
        "Eccentricity": 0.0,
        "Inclination(deg)": 60.0,
        "Latitude(deg)": 8.00548799432032,
        "Longitude(deg)": -50.970230769512874,
        "Mean Anomaly(deg)": 9.301592181927452,
        "RAAN(deg)": 44.99369926290386,
        "Satellite Name": "Test1 198",
        "Satellite Number": 198,
        "Semi-Major Axis(m)": 6980739.136638005,
        "Time(s)": 150
    },
    {
        "Altitude(m)": 604252.2777016081,
        "Argument of Periapsis(deg)": 0.0016670313461274247,
        "Eccentricity": 0.0,
        "Inclination(deg)": 60.0,
        "Latitude(deg)": 8.544048309478386,
        "Longitude(deg)": -50.69553537128683,
        "Mean Anomaly(deg)": 9.92169832738928,
        "RAAN(deg)": 44.99327921376411,
        "Satellite Name": "Test1 198",
        "Satellite Number": 198,
        "Semi-Major Axis(m)": 6980739.136638005,
        "Time(s)": 160
    },
    {
        "Altitude(m)": 604234.7787041933,
        "Argument of Periapsis(deg)": 0.0017712208052603888,
        "Eccentricity": 0.0,
        "Inclination(deg)": 60.0,
        "Latitude(deg)": 9.08234225280874,
        "Longitude(deg)": -50.41994868497872,
        "Mean Anomaly(deg)": 10.541804472851114,
        "RAAN(deg)": 44.99285916462437,
        "Satellite Name": "Test1 198",
        "Satellite Number": 198,
        "Semi-Major Axis(m)": 6980739.136638005,
        "Time(s)": 170
    },
    {
        "Altitude(m)": 604220.4278725095,
        "Argument of Periapsis(deg)": 0.001875410264393353,
        "Eccentricity": 0.0,
        "Inclination(deg)": 60.0,
        "Latitude(deg)": 9.62035133897271,
        "Longitude(deg)": -50.143411915669226,
        "Mean Anomaly(deg)": 11.161910618312941,
        "RAAN(deg)": 44.99243911548463,
        "Satellite Name": "Test1 198",
        "Satellite Number": 198,
        "Semi-Major Axis(m)": 6980739.136638005,
        "Time(s)": 180
    },
    {
        "Altitude(m)": 604209.2075794577,
        "Argument of Periapsis(deg)": 0.0019795997235263173,
        "Eccentricity": 0.0,
        "Inclination(deg)": 60.0,
        "Latitude(deg)": 10.158056902039178,
        "Longitude(deg)": -49.86586519707214,
        "Mean Anomaly(deg)": 11.782016763774768,
        "RAAN(deg)": 44.99201906634489,
        "Satellite Name": "Test1 198",
        "Satellite Number": 198,
        "Semi-Major Axis(m)": 6980739.136638005,
        "Time(s)": 190
    }
]